{
    "links": {
        "self": "http://www.neowsapp.com/rest/v1/neo/3558277?api_key=iIulBulltgU6a56xZRHN4H3l9WmuAYTsLGpBGhQ2"
    },
    "id": "3558277",
    "neo_reference_id": "3558277",
    "name": "(2011 EJ)",
    "designation": "2011 EJ",
    "nasa_jpl_url": "http://ssd.jpl.nasa.gov/sbdb.cgi?sstr=3558277",
    "absolute_magnitude_h": 22.7,
    "estimated_diameter": {
        "kilometers": {
            "estimated_diameter_min": 0.0766575574,
            "estimated_diameter_max": 0.1714115092
        },
        "meters": {
            "estimated_diameter_min": 76.6575573531,
            "estimated_diameter_max": 171.4115092306
        },
        "miles": {
            "estimated_diameter_min": 0.0476327831,
            "estimated_diameter_max": 0.1065101409
        },
        "feet": {
            "estimated_diameter_min": 251.5011804664,
            "estimated_diameter_max": 562.3737359442
        }
    },
    "is_potentially_hazardous_asteroid": false,
    "close_approach_data": [
        {
            "close_approach_date": "2011-02-12",
            "close_approach_date_full": "2011-Feb-12 05:00",
            "epoch_date_close_approach": 1297486800000,
            "relative_velocity": {
                "kilometers_per_second": "16.9032897906",
                "kilometers_per_hour": "60851.8432461524",
                "miles_per_hour": "37810.9689325884"
            },
            "miss_distance": {
                "astronomical": "0.0225720796",
                "lunar": "8.7805389644",
                "kilometers": "3376735.029630452",
                "miles": "2098205.8523141576"
            },
            "orbiting_body": "Earth"
        }
    ],
    "orbital_data": {
        "orbit_id": "8",
        "orbit_determination_date": "2017-04-06 08:54:19",
        "first_observation_date": "2011-03-01",
        "last_observation_date": "2011-03-11",
        "data_arc_in_days": 10,
        "observations_used": 34,
        "orbit_uncertainty": "8",
        "minimum_orbit_intersection": ".00665847",
        "jupiter_tisserand_invariant": "3.297",
        "epoch_osculation": "2455624.5",
        "eccentricity": ".649635314414197",
        "semi_major_axis": "2.227183352130371",
        "inclination": "15.05184315304608",
        "ascending_node_longitude": "143.4973831998874",
        "orbital_period": "1214.038290066157",
        "perihelion_distance": ".7803263949110923",
        "perihelion_argument": "299.5918390014336",
        "aphelion_distance": "3.67404030934965",
        "perihelion_time": "2455565.626007492301",
        "mean_anomaly": "17.45796444494075",
        "mean_motion": ".2965310097265403",
        "equinox": "J2000",
        "orbit_class": {
            "orbit_class_type": "APO",
            "orbit_class_description": "Near-Earth asteroid orbits which cross the Earth’s orbit similar to that of 1862 Apollo",
            "orbit_class_range": "a (semi-major axis) > 1.0 AU; q (perihelion) < 1.017 AU"
        }
    },
    "is_sentry_object": false
}